ONEWEB-0018             
1 45434U 20020L   25244.58722339  .00000049  00000+0  10135-3 0  9995
2 45434  87.8781  78.5655 0001675  84.5335 275.5984 13.11418846264801
ONEWEB-0083             
1 45435U 20020M   25244.57787641  .00006491  00000+0  18276-1 0  9991
2 45435  87.8778  78.5559 0001944  84.5195 275.6155 13.11378010264847
ONEWEB-0095             
1 45436U 20020N   25244.56871345 -.00000550  00000+0 -15879-2 0  9995
2 45436  87.8770  78.5780 0002108 107.3484 252.7874 13.11418345264844
ONEWEB-0092             
1 45437U 20020P   25244.54059816  .00000450  00000+0  12345-2 0  9997
2 45437  87.8778  78.5742 0001830  92.6345 267.4993 13.11415067264959
ONEWEB-0085             
1 45438U 20020Q   25244.57705468 -.00000349  00000+0 -10206-2 0  9995
2 45438  87.8776  78.5818 0001712  87.2005 272.9319 13.11417951264849
ONEWEB-0096             
1 45439U 20020R   25244.57874253 -.00000301  00000+0 -88529-3 0  9997
2 45439  87.8793  78.5489 0001767  80.6282 279.5045 13.11418201264834
ONEWEB-0037             
1 45440U 20020S   25244.55923488 -.00000374  00000+0 -10901-2 0  9990
2 45440  87.8791  78.5176 0001747  89.6638 270.4690 13.11414546264866
ONEWEB-0042             
1 45441U 20020T   25244.56841472 -.00000480  00000+0 -13891-2 0  9993
2 45441  87.8780  78.5578 0001838  87.7202 272.4136 13.11417037264830
